CCSDS_OMM_VERS = 2.0
CREATION_DATE  = 
ORIGINATOR     = 

OBJECT_NAME    = STARLINK-36879
OBJECT_ID      = 2026-038X
CENTER_NAME    = EARTH
REF_FRAME      = TEME
TIME_SYSTEM    = UTC
MEAN_ELEMENT_THEORY = SGP/SGP4

EPOCH          = 2026-03-04T20:00:03.000384
MEAN_MOTION    = 16.05113356
ECCENTRICITY   = .000109
INCLINATION    = 97.2741
RA_OF_ASC_NODE = 73.7401
ARG_OF_PERICENTER = 63.5918
MEAN_ANOMALY   = 224.9324

EPHEMERIS_TYPE = 0
CLASSIFICATION_TYPE = U
NORAD_CAT_ID   = 67982
ELEMENT_SET_NO = 999
REV_AT_EPOCH   = 241
BSTAR          = -.20083E-2
MEAN_MOTION_DOT = -.1363466E-1
MEAN_MOTION_DDOT = .61742E-3

CCSDS_OMM_VERS = 2.0
CREATION_DATE  = 
ORIGINATOR     = 

OBJECT_NAME    = STARLINK-36867
OBJECT_ID      = 2026-038Y
CENTER_NAME    = EARTH
REF_FRAME      = TEME
TIME_SYSTEM    = UTC
MEAN_ELEMENT_THEORY = SGP/SGP4

EPOCH          = 2026-03-04T20:00:03.000384
MEAN_MOTION    = 16.05381691
ECCENTRICITY   = .0001181
INCLINATION    = 97.2740
RA_OF_ASC_NODE = 73.7423
ARG_OF_PERICENTER = 64.6362
MEAN_ANOMALY   = 228.4852

EPHEMERIS_TYPE = 0
CLASSIFICATION_TYPE = U
NORAD_CAT_ID   = 67983
ELEMENT_SET_NO = 999
REV_AT_EPOCH   = 241
BSTAR          = -.19867E-2
MEAN_MOTION_DOT = -.1370788E-1
MEAN_MOTION_DDOT = .62562E-3

CCSDS_OMM_VERS = 2.0
CREATION_DATE  = 
ORIGINATOR     = 

OBJECT_NAME    = STARLINK-36266
OBJECT_ID      = 2026-038Z
CENTER_NAME    = EARTH
REF_FRAME      = TEME
TIME_SYSTEM    = UTC
MEAN_ELEMENT_THEORY = SGP/SGP4

EPOCH          = 2026-03-04T20:00:03.000384
MEAN_MOTION    = 16.05264714
ECCENTRICITY   = .0001196
INCLINATION    = 97.2741
RA_OF_ASC_NODE = 73.7414
ARG_OF_PERICENTER = 63.2129
MEAN_ANOMALY   = 227.8248

EPHEMERIS_TYPE = 0
CLASSIFICATION_TYPE = U
NORAD_CAT_ID   = 67984
ELEMENT_SET_NO = 999
REV_AT_EPOCH   = 238
BSTAR          = -.20034E-2
MEAN_MOTION_DOT = -.1372551E-1
MEAN_MOTION_DDOT = .62622E-3

CCSDS_OMM_VERS = 2.0
CREATION_DATE  = 
ORIGINATOR     = 

OBJECT_NAME    = STARLINK-36802
OBJECT_ID      = 2026-038AA
CENTER_NAME    = EARTH
REF_FRAME      = TEME
TIME_SYSTEM    = UTC
MEAN_ELEMENT_THEORY = SGP/SGP4

EPOCH          = 2026-03-04T20:00:03.000384
MEAN_MOTION    = 16.05481721
ECCENTRICITY   = .0001142
INCLINATION    = 97.2739
RA_OF_ASC_NODE = 73.7429
ARG_OF_PERICENTER = 68.6876
MEAN_ANOMALY   = 226.3446

EPHEMERIS_TYPE = 0
CLASSIFICATION_TYPE = U
NORAD_CAT_ID   = 67985
ELEMENT_SET_NO = 999
REV_AT_EPOCH   = 241
BSTAR          = -.19458E-2
MEAN_MOTION_DOT = -.1350991E-1
MEAN_MOTION_DDOT = .60971E-3

CCSDS_OMM_VERS = 2.0
CREATION_DATE  = 
ORIGINATOR     = 

OBJECT_NAME    = STARLINK-36535
OBJECT_ID      = 2026-039A
CENTER_NAME    = EARTH
REF_FRAME      = TEME
TIME_SYSTEM    = UTC
MEAN_ELEMENT_THEORY = SGP/SGP4

EPOCH          = 2026-03-03T14:00:03.000384
MEAN_MOTION    = 16.01492659
ECCENTRICITY   = .0001745
INCLINATION    = 42.9991
RA_OF_ASC_NODE = 92.9731
ARG_OF_PERICENTER = 278.5695
MEAN_ANOMALY   = 344.8084

EPHEMERIS_TYPE = 0
CLASSIFICATION_TYPE = U
NORAD_CAT_ID   = 67986
ELEMENT_SET_NO = 999
REV_AT_EPOCH   = 189
BSTAR          = -.21112E-2
MEAN_MOTION_DOT = -.1224918E-1
MEAN_MOTION_DDOT = .48269E-3

CCSDS_OMM_VERS = 2.0
CREATION_DATE  = 
ORIGINATOR     = 

OBJECT_NAME    = STARLINK-36744
OBJECT_ID      = 2026-039B
CENTER_NAME    = EARTH
REF_FRAME      = TEME
TIME_SYSTEM    = UTC
MEAN_ELEMENT_THEORY = SGP/SGP4

EPOCH          = 2026-03-03T14:00:03.000384
MEAN_MOTION    = 16.01576759
ECCENTRICITY   = .0001729
INCLINATION    = 42.9990
RA_OF_ASC_NODE = 92.9709
ARG_OF_PERICENTER = 277.3159
MEAN_ANOMALY   = 346.8529

EPHEMERIS_TYPE = 0
CLASSIFICATION_TYPE = U
NORAD_CAT_ID   = 67987
ELEMENT_SET_NO = 999
REV_AT_EPOCH   = 189
BSTAR          = -.20928E-2
MEAN_MOTION_DOT = -.1220295E-1
MEAN_MOTION_DDOT = .47981E-3

CCSDS_OMM_VERS = 2.0
CREATION_DATE  = 
ORIGINATOR     = 

OBJECT_NAME    = STARLINK-36734
OBJECT_ID      = 2026-039C
CENTER_NAME    = EARTH
REF_FRAME      = TEME
TIME_SYSTEM    = UTC
MEAN_ELEMENT_THEORY = SGP/SGP4

EPOCH          = 2026-03-03T14:00:03.000384
MEAN_MOTION    = 16.01717704
ECCENTRICITY   = .0001748
INCLINATION    = 42.9990
RA_OF_ASC_NODE = 92.9690
ARG_OF_PERICENTER = 277.6394
MEAN_ANOMALY   = 347.3229

EPHEMERIS_TYPE = 0
CLASSIFICATION_TYPE = U
NORAD_CAT_ID   = 67988
ELEMENT_SET_NO = 999
REV_AT_EPOCH   = 189
BSTAR          = -.20687E-2
MEAN_MOTION_DOT = -.1216341E-1
MEAN_MOTION_DDOT = .47771E-3

CCSDS_OMM_VERS = 2.0
CREATION_DATE  = 
ORIGINATOR     = 

OBJECT_NAME    = STARLINK-36957
OBJECT_ID      = 2026-039D
CENTER_NAME    = EARTH
REF_FRAME      = TEME
TIME_SYSTEM    = UTC
MEAN_ELEMENT_THEORY = SGP/SGP4

EPOCH          = 2026-03-03T14:00:03.000384
MEAN_MOTION    = 16.01813853
ECCENTRICITY   = .0001762
INCLINATION    = 42.9989
RA_OF_ASC_NODE = 92.9670
ARG_OF_PERICENTER = 278.4252
MEAN_ANOMALY   = 347.2042

EPHEMERIS_TYPE = 0
CLASSIFICATION_TYPE = U
NORAD_CAT_ID   = 67989
ELEMENT_SET_NO = 999
REV_AT_EPOCH   = 189
BSTAR          = -.20423E-2
MEAN_MOTION_DOT = -.1207716E-1
MEAN_MOTION_DDOT = .47204E-3

CCSDS_OMM_VERS = 2.0
CREATION_DATE  = 
ORIGINATOR     = 

OBJECT_NAME    = STARLINK-36951
OBJECT_ID      = 2026-039E
CENTER_NAME    = EARTH
REF_FRAME      = TEME
TIME_SYSTEM    = UTC
MEAN_ELEMENT_THEORY = SGP/SGP4

EPOCH          = 2026-03-03T14:00:03.000384
MEAN_MOTION    = 16.01949740
ECCENTRICITY   = .00018181
INCLINATION    = 42.9990
RA_OF_ASC_NODE = 92.9652
ARG_OF_PERICENTER = 277.2446
MEAN_ANOMALY   = 349.1623

EPHEMERIS_TYPE = 0
CLASSIFICATION_TYPE = U
NORAD_CAT_ID   = 67990
ELEMENT_SET_NO = 999
REV_AT_EPOCH   = 189
BSTAR          = -.20187153E-2
MEAN_MOTION_DOT = -.1203403E-1
MEAN_MOTION_DDOT = .46966207E-3

CCSDS_OMM_VERS = 2.0
CREATION_DATE  = 
ORIGINATOR     = 

OBJECT_NAME    = STARLINK-36941
OBJECT_ID      = 2026-039F
CENTER_NAME    = EARTH
REF_FRAME      = TEME
TIME_SYSTEM    = UTC
MEAN_ELEMENT_THEORY = SGP/SGP4

EPOCH          = 2026-03-03T14:00:03.000384
MEAN_MOTION    = 16.02029759
ECCENTRICITY   = .0001734
INCLINATION    = 42.9989
RA_OF_ASC_NODE = 92.9634
ARG_OF_PERICENTER = 278.6654
MEAN_ANOMALY   = 348.3551

EPHEMERIS_TYPE = 0
CLASSIFICATION_TYPE = U
NORAD_CAT_ID   = 67991
ELEMENT_SET_NO = 999
REV_AT_EPOCH   = 189
BSTAR          = -.20009E-2
MEAN_MOTION_DOT = -.1198456E-1
MEAN_MOTION_DDOT = .46655E-3

CCSDS_OMM_VERS = 2.0
CREATION_DATE  = 
ORIGINATOR     = 

OBJECT_NAME    = STARLINK-36950
OBJECT_ID      = 2026-039G
CENTER_NAME    = EARTH
REF_FRAME      = TEME
TIME_SYSTEM    = UTC
MEAN_ELEMENT_THEORY = SGP/SGP4

EPOCH          = 2026-03-03T14:00:03.000384
MEAN_MOTION    = 16.02154769
ECCENTRICITY   = .000175
INCLINATION    = 42.9990
RA_OF_ASC_NODE = 92.9616
ARG_OF_PERICENTER = 277.6024
MEAN_ANOMALY   = 350.1725

EPHEMERIS_TYPE = 0
CLASSIFICATION_TYPE = U
NORAD_CAT_ID   = 67992
ELEMENT_SET_NO = 999
REV_AT_EPOCH   = 189
BSTAR          = -.19752E-2
MEAN_MOTION_DOT = -.1191871E-1
MEAN_MOTION_DDOT = .46252E-3

CCSDS_OMM_VERS = 2.0
CREATION_DATE  = 
ORIGINATOR     = 

OBJECT_NAME    = STARLINK-36975
OBJECT_ID      = 2026-039H
CENTER_NAME    = EARTH
REF_FRAME      = TEME
TIME_SYSTEM    = UTC
MEAN_ELEMENT_THEORY = SGP/SGP4

EPOCH          = 2026-03-03T14:00:03.000384
MEAN_MOTION    = 16.02266174
ECCENTRICITY   = .0001823
INCLINATION    = 42.9990
RA_OF_ASC_NODE = 92.9599
ARG_OF_PERICENTER = 277.2001
MEAN_ANOMALY   = 351.2886

EPHEMERIS_TYPE = 0
CLASSIFICATION_TYPE = U
NORAD_CAT_ID   = 67993
ELEMENT_SET_NO = 999
REV_AT_EPOCH   = 189
BSTAR          = -.1948E-2
MEAN_MOTION_DOT = -.1183344E-1
MEAN_MOTION_DDOT = .45705E-3

